STARLINK-30866          
1 58237U 23171H   26024.79282578  .00003258  00000+0  25611-3 0  9996
2 58237  43.0029 164.3956 0001627 265.3166  94.7490 15.02542852123120
STARLINK-30817          
1 58238U 23171J   26024.75963028  .00001304  00000+0  11150-3 0  9992
2 58238  43.0026 165.0034 0002296 290.7879  69.2717 15.02560552123114
STARLINK-30847          
1 58239U 23171K   26024.76295770  .00001318  00000+0  11259-3 0  9991
2 58239  43.0021 165.0325 0001794 258.7781 101.2859 15.02544884123115
STARLINK-30848          
1 58240U 23171L   26024.77763852  .00003056  00000+0  24117-3 0  9993
2 58240  43.0028 165.9742 0001378 269.3965  90.6720 15.02540661123102
STARLINK-30843          
1 58241U 23171M   26024.76629030  .00002249  00000+0  18137-3 0  9990
2 58241  42.9996 165.0449 0001437 281.4550  78.6131 15.02557157123134
STARLINK-30877          
1 58242U 23171N   26024.79615558  .00003690  00000+0  28811-3 0  9995
2 58242  43.0028 164.4173 0001319 275.0727  84.9965 15.02538118123124
STARLINK-30864          
1 58243U 23171P   26024.77283935  .00002912  00000+0  23044-3 0  9993
2 58243  43.0022 164.2521 0001462 293.4346  66.6343 15.02553088123023
STARLINK-30854          
1 58244U 23171Q   26024.76432952  .00008895  00000+0  67240-3 0  9990
2 58244  43.0013 165.8908 0001467 281.2391  78.8286 15.02551187123108
STARLINK-30849          
1 58245U 23171R   26024.77618090  .00006039  00000+0  46162-3 0  9999
2 58245  43.0016 164.2773 0001272 275.1602  84.9095 15.02544578123120
STARLINK-30886          
1 58246U 23171S   26024.78283523  .00002685  00000+0  21376-3 0  9993
2 58246  43.0026 164.3238 0001373 272.5930  87.4755 15.02532375123129
STARLINK-30850          
1 58247U 23171T   26024.77951886 -.00000045  00000+0  11720-4 0  9999
2 58247  43.0040 164.3018 0001767 266.3873  93.6767 15.02529105123125
STARLINK-30823          
1 58248U 23171U   26024.78615953  .00006532  00000+0  49789-3 0  9994
2 58248  43.0035 164.3479 0001464 265.5097  94.5578 15.02554296123123
STARLINK-30873          
1 58249U 23171V   26024.78949538  .00002917  00000+0  23098-3 0  9992
2 58249  43.0027 164.3718 0001141 265.5264  94.5448 15.02531617123127
STARLINK-30808          
1 58250U 23171W   26024.75111070  .00005671  00000+0  43436-3 0  9991
2 58250  43.0017 166.6232 0001082 275.5822  84.4897 15.02550518123092
STARLINK-30881          
1 58251U 23171X   26024.76961229  .00001579  00000+0  13189-3 0  9997
2 58251  43.0022 164.9951 0001286 275.7419  84.3277 15.02547662123118
STARLINK-30883          
1 58252U 23171Y   26024.73301196  .00008380  00000+0  63445-3 0  9993
2 58252  43.0013 164.8004 0001343 270.1058  89.9631 15.02550524123115
