[{"OBJECT_NAME":"STARLINK-30866","OBJECT_ID":"2023-171H","EPOCH":"2026-01-24T19:01:40.147392","MEAN_MOTION":15.02542852,"ECCENTRICITY":0.00016271,"INCLINATION":43.0029,"RA_OF_ASC_NODE":164.3956,"ARG_OF_PERICENTER":265.3166,"MEAN_ANOMALY":94.749,"EPHEMERIS_TYPE":0,"CLASSIFICATION_TYPE":"U","NORAD_CAT_ID":58237,"ELEMENT_SET_NO":999,"REV_AT_EPOCH":12312,"BSTAR":0.00025611346,"MEAN_MOTION_DOT":3.258e-5,"MEAN_MOTION_DDOT":0},{"OBJECT_NAME":"STARLINK-30817","OBJECT_ID":"2023-171J","EPOCH":"2026-01-24T18:13:52.056192","MEAN_MOTION":15.02560552,"ECCENTRICITY":0.00022963,"INCLINATION":43.0026,"RA_OF_ASC_NODE":165.0034,"ARG_OF_PERICENTER":290.7879,"MEAN_ANOMALY":69.2717,"EPHEMERIS_TYPE":0,"CLASSIFICATION_TYPE":"U","NORAD_CAT_ID":58238,"ELEMENT_SET_NO":999,"REV_AT_EPOCH":12311,"BSTAR":0.00011149706,"MEAN_MOTION_DOT":1.304e-5,"MEAN_MOTION_DDOT":0},{"OBJECT_NAME":"STARLINK-30847","OBJECT_ID":"2023-171K","EPOCH":"2026-01-24T18:18:39.545280","MEAN_MOTION":15.02544884,"ECCENTRICITY":0.00017944,"INCLINATION":43.0021,"RA_OF_ASC_NODE":165.0325,"ARG_OF_PERICENTER":258.7781,"MEAN_ANOMALY":101.2859,"EPHEMERIS_TYPE":0,"CLASSIFICATION_TYPE":"U","NORAD_CAT_ID":58239,"ELEMENT_SET_NO":999,"REV_AT_EPOCH":12311,"BSTAR":0.00011258651,"MEAN_MOTION_DOT":1.318e-5,"MEAN_MOTION_DDOT":0},{"OBJECT_NAME":"STARLINK-30848","OBJECT_ID":"2023-171L","EPOCH":"2026-01-24T18:39:47.968128","MEAN_MOTION":15.02540661,"ECCENTRICITY":0.00013789,"INCLINATION":43.0028,"RA_OF_ASC_NODE":165.9742,"ARG_OF_PERICENTER":269.3965,"MEAN_ANOMALY":90.672,"EPHEMERIS_TYPE":0,"CLASSIFICATION_TYPE":"U","NORAD_CAT_ID":58240,"ELEMENT_SET_NO":999,"REV_AT_EPOCH":12310,"BSTAR":0.00024117461,"MEAN_MOTION_DOT":3.056e-5,"MEAN_MOTION_DDOT":0},{"OBJECT_NAME":"STARLINK-30843","OBJECT_ID":"2023-171M","EPOCH":"2026-01-24T18:23:27.481920","MEAN_MOTION":15.02557157,"ECCENTRICITY":0.00014374,"INCLINATION":42.9996,"RA_OF_ASC_NODE":165.0449,"ARG_OF_PERICENTER":281.455,"MEAN_ANOMALY":78.6131,"EPHEMERIS_TYPE":0,"CLASSIFICATION_TYPE":"U","NORAD_CAT_ID":58241,"ELEMENT_SET_NO":999,"REV_AT_EPOCH":12313,"BSTAR":0.00018137225,"MEAN_MOTION_DOT":2.249e-5,"MEAN_MOTION_DDOT":0},{"OBJECT_NAME":"STARLINK-30877","OBJECT_ID":"2023-171N","EPOCH":"2026-01-24T19:06:27.842112","MEAN_MOTION":15.02538118,"ECCENTRICITY":0.00013195,"INCLINATION":43.0028,"RA_OF_ASC_NODE":164.4173,"ARG_OF_PERICENTER":275.0727,"MEAN_ANOMALY":84.9965,"EPHEMERIS_TYPE":0,"CLASSIFICATION_TYPE":"U","NORAD_CAT_ID":58242,"ELEMENT_SET_NO":999,"REV_AT_EPOCH":12312,"BSTAR":0.00028810617,"MEAN_MOTION_DOT":3.69e-5,"MEAN_MOTION_DDOT":0},{"OBJECT_NAME":"STARLINK-30864","OBJECT_ID":"2023-171P","EPOCH":"2026-01-24T18:32:53.319840","MEAN_MOTION":15.02553088,"ECCENTRICITY":0.00014625,"INCLINATION":43.0022,"RA_OF_ASC_NODE":164.2521,"ARG_OF_PERICENTER":293.4346,"MEAN_ANOMALY":66.6343,"EPHEMERIS_TYPE":0,"CLASSIFICATION_TYPE":"U","NORAD_CAT_ID":58243,"ELEMENT_SET_NO":999,"REV_AT_EPOCH":12302,"BSTAR":0.000230435,"MEAN_MOTION_DOT":2.912e-5,"MEAN_MOTION_DDOT":0},{"OBJECT_NAME":"STARLINK-30854","OBJECT_ID":"2023-171Q","EPOCH":"2026-01-24T18:20:38.070528","MEAN_MOTION":15.02551187,"ECCENTRICITY":0.00014672,"INCLINATION":43.0013,"RA_OF_ASC_NODE":165.8908,"ARG_OF_PERICENTER":281.2391,"MEAN_ANOMALY":78.8286,"EPHEMERIS_TYPE":0,"CLASSIFICATION_TYPE":"U","NORAD_CAT_ID":58244,"ELEMENT_SET_NO":999,"REV_AT_EPOCH":12310,"BSTAR":0.00067240106,"MEAN_MOTION_DOT":8.895e-5,"MEAN_MOTION_DDOT":0},{"OBJECT_NAME":"STARLINK-30849","OBJECT_ID":"2023-171R","EPOCH":"2026-01-24T18:37:42.029760","MEAN_MOTION":15.02544578,"ECCENTRICITY":0.00012726,"INCLINATION":43.0016,"RA_OF_ASC_NODE":164.2773,"ARG_OF_PERICENTER":275.1602,"MEAN_ANOMALY":84.9095,"EPHEMERIS_TYPE":0,"CLASSIFICATION_TYPE":"U","NORAD_CAT_ID":58245,"ELEMENT_SET_NO":999,"REV_AT_EPOCH":12312,"BSTAR":0.00046162231,"MEAN_MOTION_DOT":6.039e-5,"MEAN_MOTION_DDOT":0},{"OBJECT_NAME":"STARLINK-30886","OBJECT_ID":"2023-171S","EPOCH":"2026-01-24T18:47:16.963872","MEAN_MOTION":15.02532375,"ECCENTRICITY":0.00013732,"INCLINATION":43.0026,"RA_OF_ASC_NODE":164.3238,"ARG_OF_PERICENTER":272.593,"MEAN_ANOMALY":87.4755,"EPHEMERIS_TYPE":0,"CLASSIFICATION_TYPE":"U","NORAD_CAT_ID":58246,"ELEMENT_SET_NO":999,"REV_AT_EPOCH":12312,"BSTAR":0.00021375584,"MEAN_MOTION_DOT":2.685e-5,"MEAN_MOTION_DDOT":0},{"OBJECT_NAME":"STARLINK-30850","OBJECT_ID":"2023-171T","EPOCH":"2026-01-24T18:42:30.429504","MEAN_MOTION":15.02529105,"ECCENTRICITY":0.00017678,"INCLINATION":43.004,"RA_OF_ASC_NODE":164.3018,"ARG_OF_PERICENTER":266.3873,"MEAN_ANOMALY":93.6767,"EPHEMERIS_TYPE":0,"CLASSIFICATION_TYPE":"U","NORAD_CAT_ID":58247,"ELEMENT_SET_NO":999,"REV_AT_EPOCH":12312,"BSTAR":1.1719779e-5,"MEAN_MOTION_DOT":-4.5e-7,"MEAN_MOTION_DDOT":0},{"OBJECT_NAME":"STARLINK-30823","OBJECT_ID":"2023-171U","EPOCH":"2026-01-24T18:52:04.183392","MEAN_MOTION":15.02554296,"ECCENTRICITY":0.0001464,"INCLINATION":43.0035,"RA_OF_ASC_NODE":164.3479,"ARG_OF_PERICENTER":265.5097,"MEAN_ANOMALY":94.5578,"EPHEMERIS_TYPE":0,"CLASSIFICATION_TYPE":"U","NORAD_CAT_ID":58248,"ELEMENT_SET_NO":999,"REV_AT_EPOCH":12312,"BSTAR":0.00049789132,"MEAN_MOTION_DOT":6.532e-5,"MEAN_MOTION_DDOT":0},{"OBJECT_NAME":"STARLINK-30873","OBJECT_ID":"2023-171V","EPOCH":"2026-01-24T18:56:52.400832","MEAN_MOTION":15.02531617,"ECCENTRICITY":0.00011414,"INCLINATION":43.0027,"RA_OF_ASC_NODE":164.3718,"ARG_OF_PERICENTER":265.5264,"MEAN_ANOMALY":94.5448,"EPHEMERIS_TYPE":0,"CLASSIFICATION_TYPE":"U","NORAD_CAT_ID":58249,"ELEMENT_SET_NO":999,"REV_AT_EPOCH":12312,"BSTAR":0.00023097889,"MEAN_MOTION_DOT":2.917e-5,"MEAN_MOTION_DDOT":0},{"OBJECT_NAME":"STARLINK-30808","OBJECT_ID":"2023-171W","EPOCH":"2026-01-24T18:01:35.964480","MEAN_MOTION":15.02550518,"ECCENTRICITY":0.00010825,"INCLINATION":43.0017,"RA_OF_ASC_NODE":166.6232,"ARG_OF_PERICENTER":275.5822,"MEAN_ANOMALY":84.4897,"EPHEMERIS_TYPE":0,"CLASSIFICATION_TYPE":"U","NORAD_CAT_ID":58250,"ELEMENT_SET_NO":999,"REV_AT_EPOCH":12309,"BSTAR":0.00043435661,"MEAN_MOTION_DOT":5.671e-5,"MEAN_MOTION_DDOT":0},{"OBJECT_NAME":"STARLINK-30881","OBJECT_ID":"2023-171X","EPOCH":"2026-01-24T18:28:14.501856","MEAN_MOTION":15.02547662,"ECCENTRICITY":0.00012867,"INCLINATION":43.0022,"RA_OF_ASC_NODE":164.9951,"ARG_OF_PERICENTER":275.7419,"MEAN_ANOMALY":84.3277,"EPHEMERIS_TYPE":0,"CLASSIFICATION_TYPE":"U","NORAD_CAT_ID":58251,"ELEMENT_SET_NO":999,"REV_AT_EPOCH":12311,"BSTAR":0.00013188579,"MEAN_MOTION_DOT":1.579e-5,"MEAN_MOTION_DDOT":0},{"OBJECT_NAME":"STARLINK-30883","OBJECT_ID":"2023-171Y","EPOCH":"2026-01-24T17:35:32.233344","MEAN_MOTION":15.02550524,"ECCENTRICITY":0.0001343,"INCLINATION":43.0013,"RA_OF_ASC_NODE":164.8004,"ARG_OF_PERICENTER":270.1058,"MEAN_ANOMALY":89.9631,"EPHEMERIS_TYPE":0,"CLASSIFICATION_TYPE":"U","NORAD_CAT_ID":58252,"ELEMENT_SET_NO":999,"REV_AT_EPOCH":12311,"BSTAR":0.00063444713,"MEAN_MOTION_DOT":8.38e-5,"MEAN_MOTION_DDOT":0}]
